GSAT0101 (GALILEO-PFM)  
1 37846U 11060A   25041.29005219 -.00000108  00000+0  00000+0 0  9994
2 37846  57.1147 355.0917 0003836 344.2245  15.7442  1.70475742 82739
GSAT0102 (GALILEO-FM2)  
1 37847U 11060B   25041.51268187 -.00000108  00000+0  00000+0 0  9995
2 37847  57.1153 355.0858 0005415 328.2799 213.6158  1.70475853 82862
GSAT0103 (GALILEO-FM3)  
1 38857U 12055A   25043.08951401 -.00000015  00000+0  00000+0 0  9991
2 38857  55.5206 115.0094 0004725 269.9899  90.0166  1.70473454 76657
GSAT0201 (GALILEO 5)    
1 40128U 14050A   25041.86034672 -.00000041  00000+0  00000+0 0  9997
2 40128  49.4062 293.4417 1619510 160.4335 206.6110  1.85519788 69202
GSAT0202 (GALILEO 6)    
1 40129U 14050B   25043.19569975 -.00000044  00000+0  00000+0 0  9998
2 40129  49.4208 292.4676 1619307 161.2648 205.4948  1.85520499 71391
GSAT0203 (GALILEO 7)    
1 40544U 15017A   25040.48221919 -.00000107  00000+0  00000+0 0  9995
2 40544  56.9050 355.0151 0005496 285.4500  74.4710  1.70475612 60802
GSAT0204 (GALILEO 8)    
1 40545U 15017B   25043.08334305 -.00000108  00000+0  00000+0 0  9990
2 40545  56.9155 354.9611 0004820 277.6839  82.2434  1.70475525 23897
GSAT0205 (GALILEO 9)    
1 40889U 15045A   25037.57270511  .00000077  00000+0  00000+0 0  9991
2 40889  55.1184 235.2927 0006364  46.7135 313.3685  1.70473377 58562
GSAT0206 (GALILEO 10)   
1 40890U 15045B   25043.07254930  .00000043  00000+0  00000+0 0  9995
2 40890  55.1155 235.1359 0004203  48.9696 311.0738  1.70473595 58685
GSAT0209 (GALILEO 12)   
1 41174U 15079A   25040.89503441 -.00000028  00000+0  00000+0 0  9993
2 41174  55.5388 114.7812 0003562 313.1828  46.8337  1.70474660 56387
GSAT0208 (GALILEO 11)   
1 41175U 15079B   25038.18202304 -.00000034  00000+0  00000+0 0  9994
2 41175  55.5365 114.8533 0005178 294.8521  65.1301  1.70474470 56759
GSAT0211 (GALILEO 14)   
1 41549U 16030A   25043.58488349  .00000042  00000+0  00000+0 0  9990
2 41549  55.2678 235.1589 0003835  25.3006 334.7219  1.70473585 54329
GSAT0210 (GALILEO 13)   
1 41550U 16030B   25043.25611559  .00000043  00000+0  00000+0 0  9998
2 41550  55.2644 235.1663 0000908 158.8593 201.1504  1.70473809 54310
GSAT0207 (GALILEO 15)   
1 41859U 16069A   25042.36168374 -.00000020  00000+0  00000+0 0  9991
2 41859  55.2059 114.6839 0005147 295.6250  64.3779  1.70474410 51036
GSAT0212 (GALILEO 16)   
1 41860U 16069B   25043.38886838 -.00000014  00000+0  00000+0 0  9991
2 41860  55.2043 114.6512 0002654 326.9289  33.1173  1.70474886 51308
GSAT0213 (GALILEO 17)   
1 41861U 16069C   25041.99728934 -.00000022  00000+0  00000+0 0  9998
2 41861  55.2058 114.6971 0004451 277.0880  82.9149  1.70475075 51142
GSAT0214 (GALILEO 18)   
1 41862U 16069D   25037.45011033 -.00000031  00000+0  00000+0 0  9990
2 41862  55.2023 114.8166 0003482 278.3589  81.6381  1.70474933 51197
GSAT0215 (GALILEO 19)   
1 43055U 17079A   25042.04632494  .00000049  00000+0  00000+0 0  9997
2 43055  55.2422 235.0198 0000957  35.7528 324.2678  1.70474273 44610
GSAT0216 (GALILEO 20)   
1 43056U 17079B   25042.92440814  .00000044  00000+0  00000+0 0  9993
2 43056  55.2421 234.9955 0001652 330.5576  29.4410  1.70474411 44646
GSAT0217 (GALILEO 21)   
1 43057U 17079C   25042.55840362  .00000046  00000+0  00000+0 0  9997
2 43057  55.2388 235.0039 0002177   1.4672 358.5440  1.70474297 44627
GSAT0218 (GALILEO 22)   
1 43058U 17079D   25041.60529138  .00000053  00000+0  00000+0 0  9996
2 43058  55.2410 235.0279 0001821 314.1252  45.8770  1.70474305 44636
GSAT0221 (GALILEO 25)   
1 43564U 18060A   25042.67977656 -.00000108  00000+0  00000+0 0  9991
2 43564  57.2893 355.0163 0005997 297.9161  62.0043  1.70475493 40803
GSAT0222 (GALILEO 26)   
1 43565U 18060B   25042.31205823 -.00000108  00000+0  00000+0 0  9993
2 43565  57.2930 355.0286 0004737 278.3841  81.5431  1.70475204 40842
GSAT0219 (GALILEO 23)   
1 43566U 18060C   25042.53358837 -.00000108  00000+0  00000+0 0  9992
2 43566  57.2923 355.0243 0005427 304.8698  55.0601  1.70475501 40823
GSAT0220 (GALILEO 24)   
1 43567U 18060D   25042.75437687 -.00000108  00000+0  00000+0 0  9998
2 43567  57.2919 355.0181 0005622 300.3510  59.5747  1.70475543 40816
GSAT0223 (GALILEO 27)   
1 49809U 21116A   25043.38932242 -.00000108  00000+0  00000+0 0  9996
2 49809  57.2818 354.8938 0002939 271.5692 208.6153  1.70475636 19833
GSAT0224 (GALILEO 28)   
1 49810U 21116B   25038.48190227 -.00000101  00000+0  00000+0 0  9995
2 49810  57.2834 355.0247 0002689 279.7517 181.1870  1.70475328 19779
GSAT0225 (GALILEO 29)   
1 59598U 24079A   25042.44094279 -.00000020  00000+0  00000+0 0  9991
2 59598  54.8234 114.8102 0002776 231.2008 130.9953  1.70475021  4954
GSAT0227 (GALILEO 30)   
1 59600U 24079C   25043.20736488 -.00000016  00000+0  00000+0 0  9990
2 59600  54.8188 114.7890 0001659 139.7762 220.2971  1.70475113  5010
GSAT0232 (GALILEO 32)   
1 61182U 24167A   25042.86910091  .00000045  00000+0  00000+0 0  9992
2 61182  55.3519 234.7642 0001959 174.6561 173.1259  1.70473857  2518
GSAT0226 (GALILEO 31)   
1 61183U 24167B   25042.68189001  .00000046  00000+0  00000+0 0  9993
2 61183  55.3501 234.7751 0002036 108.4819 236.9498  1.70473959  2481
